[{"OBJECT_NAME":"STARLINK-34961","OBJECT_ID":"2025-179T","EPOCH":"2026-03-09T17:18:06.743232","MEAN_MOTION":15.05648156,"ECCENTRICITY":9.541e-5,"INCLINATION":97.6032,"RA_OF_ASC_NODE":113.0048,"ARG_OF_PERICENTER":116.9274,"MEAN_ANOMALY":243.205,"EPHEMERIS_TYPE":0,"CLASSIFICATION_TYPE":"U","NORAD_CAT_ID":65252,"ELEMENT_SET_NO":999,"REV_AT_EPOCH":3183,"BSTAR":0.00011293018,"MEAN_MOTION_DOT":1.569e-5,"MEAN_MOTION_DDOT":0},{"OBJECT_NAME":"IRIDIUM 33 DEB","OBJECT_ID":"1997-051ACD","EPOCH":"2026-02-15T04:06:14.442336","MEAN_MOTION":15.0282309,"ECCENTRICITY":0.00183243,"INCLINATION":86.3384,"RA_OF_ASC_NODE":302.6959,"ARG_OF_PERICENTER":121.5358,"MEAN_ANOMALY":29.3036,"EPHEMERIS_TYPE":0,"CLASSIFICATION_TYPE":"U","NORAD_CAT_ID":46971,"ELEMENT_SET_NO":999,"REV_AT_EPOCH":65196,"BSTAR":0.0024316654,"MEAN_MOTION_DOT":0.00032805,"MEAN_MOTION_DDOT":0}]
